{"type": "FeatureCollection", "features": [ {"type": "Feature", "properties": {"norad_id": 66496, "name": "STARLINK-35909", "group": "last-30-days", "lat": -6.754596557066599, "lon": 176.87049011875132, "alt_km": 346.35796330009725, "timestamp": "2025-12-02T17:49:10.799873+00:00", "meta": {"OBJECT_NAME": "STARLINK-35909", "OBJECT_ID": "2025-263M", "EPOCH": "2025-12-02T12:00:05.998752", "MEAN_MOTION": 15.75400043, "ECCENTRICITY": 0.0001498, "INCLINATION": 42.9986, "RA_OF_ASC_NODE": 185.644, "ARG_OF_PERICENTER": 276.4235, "MEAN_ANOMALY": 137.5621, "EPHEMERIS_TYPE": 0, "CLASSIFICATION_TYPE": "U", "NORAD_CAT_ID": 66496, "ELEMENT_SET_NO": 999, "REV_AT_EPOCH": 399, "BSTAR": -0.011881, "MEAN_MOTION_DOT": -0.01645736, "MEAN_MOTION_DDOT": 0}, "tle": {"line1": "1 66496U 25263M   25336.50006943 -.01645736  00000+0 -11881-1 0  9998", "line2": "2 66496  42.9986 185.6440 0001498 276.4235 137.5621 15.75400043  3995"}}, "geometry": {"type": "Point", "coordinates": [176.87049011875132, -6.754596557066599]}}, {"type": "Feature", "properties": {"norad_id": 66497, "name": "STARLINK-35899", "group": "last-30-days", "lat": -5.459229084680546, "lon": 178.28055410680793, "alt_km": 346.1962880717638, "timestamp": "2025-12-02T17:49:10.799885+00:00", "meta": {"OBJECT_NAME": "STARLINK-35899", "OBJECT_ID": "2025-263N", "EPOCH": "2025-12-02T12:00:05.998752", "MEAN_MOTION": 15.75405258, "ECCENTRICITY": 0.0001495, "INCLINATION": 42.9986, "RA_OF_ASC_NODE": 185.6385, "ARG_OF_PERICENTER": 278.2627, "MEAN_ANOMALY": 137.6325, "EPHEMERIS_TYPE": 0, "CLASSIFICATION_TYPE": "U", "NORAD_CAT_ID": 66497, "ELEMENT_SET_NO": 999, "REV_AT_EPOCH": 399, "BSTAR": -0.01191, "MEAN_MOTION_DOT": -0.01649627, "MEAN_MOTION_DDOT": 0}, "tle": {"line1": "1 66497U 25263N   25336.50006943 -.01649627  00000+0 -11910-1 0  9995", "line2": "2 66497  42.9986 185.6385 0001495 278.2627 137.6325 15.75405258  3991"}}, "geometry": {"type": "Point", "coordinates": [178.28055410680793, -5.459229084680546]}}, {"type": "Feature", "properties": {"norad_id": 66498, "name": "STARLINK-35907", "group": "last-30-days", "lat": -4.152103540686611, "lon": 179.6947111125005, "alt_km": 346.62691915327923, "timestamp": "2025-12-02T17:49:10.799895+00:00", "meta": {"OBJECT_NAME": "STARLINK-35907", "OBJECT_ID": "2025-263P", "EPOCH": "2025-12-02T12:00:05.998752", "MEAN_MOTION": 15.75427238, "ECCENTRICITY": 0.000155, "INCLINATION": 42.9984, "RA_OF_ASC_NODE": 185.6341, "ARG_OF_PERICENTER": 252.8646, "MEAN_ANOMALY": 164.9454, "EPHEMERIS_TYPE": 0, "CLASSIFICATION_TYPE": "U", "NORAD_CAT_ID": 66498, "ELEMENT_SET_NO": 999, "REV_AT_EPOCH": 399, "BSTAR": -0.012202, "MEAN_MOTION_DOT": -0.01686906, "MEAN_MOTION_DDOT": 0}, "tle": {"line1": "1 66498U 25263P   25336.50006943 -.01686906  00000+0 -12202-1 0  9992", "line2": "2 66498  42.9984 185.6341 0001550 252.8646 164.9454 15.75427238  3991"}}, "geometry": {"type": "Point", "coordinates": [179.6947111125005, -4.152103540686611]}}, {"type": "Feature", "properties": {"norad_id": 66499, "name": "STARLINK-35816", "group": "last-30-days", "lat": -1.5329146818923056, "lon": -177.49225809359115, "alt_km": 346.0073193599965, "timestamp": "2025-12-02T17:49:10.799907+00:00", "meta": {"OBJECT_NAME": "STARLINK-35816", "OBJECT_ID": "2025-263Q", "EPOCH": "2025-12-02T12:00:05.998752", "MEAN_MOTION": 15.75332954, "ECCENTRICITY": 0.0001534, "INCLINATION": 42.9986, "RA_OF_ASC_NODE": 185.6243, "ARG_OF_PERICENTER": 274.3238, "MEAN_ANOMALY": 147.3919, "EPHEMERIS_TYPE": 0, "CLASSIFICATION_TYPE": "U", "NORAD_CAT_ID": 66499, "ELEMENT_SET_NO": 999, "REV_AT_EPOCH": 399, "BSTAR": -0.011479, "MEAN_MOTION_DOT": -0.01591891, "MEAN_MOTION_DDOT": 0}, "tle": {"line1": "1 66499U 25263Q   25336.50006943 -.01591891  00000+0 -11479-1 0  9996", "line2": "2 66499  42.9986 185.6243 0001534 274.3238 147.3919 15.75332954  3994"}}, "geometry": {"type": "Point", "coordinates": [-177.49225809359115, -1.5329146818923056]}}, {"type": "Feature", "properties": {"norad_id": 66500, "name": "STARLINK-35894", "group": "last-30-days", "lat": -2.8469983872104985, "lon": -178.90073950463403, "alt_km": 345.98313795312424, "timestamp": "2025-12-02T17:49:10.799917+00:00", "meta": {"OBJECT_NAME": "STARLINK-35894", "OBJECT_ID": "2025-263R", "EPOCH": "2025-12-02T12:00:05.998752", "MEAN_MOTION": 15.75442685, "ECCENTRICITY": 0.0001841, "INCLINATION": 42.9985, "RA_OF_ASC_NODE": 185.6296, "ARG_OF_PERICENTER": 277.0909, "MEAN_ANOMALY": 142.6366, "EPHEMERIS_TYPE": 0, "CLASSIFICATION_TYPE": "U", "NORAD_CAT_ID": 66500, "ELEMENT_SET_NO": 999, "REV_AT_EPOCH": 399, "BSTAR": -0.012681, "MEAN_MOTION_DOT": -0.01746382, "MEAN_MOTION_DDOT": 0}, "tle": {"line1": "1 66500U 25263R   25336.50006943 -.01746382  00000+0 -12681-1 0  9992", "line2": "2 66500  42.9985 185.6296 0001841 277.0909 142.6366 15.75442685  3997"}}, "geometry": {"type": "Point", "coordinates": [-178.90073950463403, -2.8469983872104985]}}, {"type": "Feature", "properties": {"norad_id": 66501, "name": "STARLINK-35897", "group": "last-30-days", "lat": -0.2327960990127788, "lon": -176.1014911801138, "alt_km": 346.0120393439056, "timestamp": "2025-12-02T17:49:10.799930+00:00", "meta": {"OBJECT_NAME": "STARLINK-35897", "OBJECT_ID": "2025-263S", "EPOCH": "2025-12-02T12:00:05.998752", "MEAN_MOTION": 15.75427733, "ECCENTRICITY": 0.000139, "INCLINATION": 42.9985, "RA_OF_ASC_NODE": 185.6193, "ARG_OF_PERICENTER": 263.6298, "MEAN_ANOMALY": 159.9376, "EPHEMERIS_TYPE": 0, "CLASSIFICATION_TYPE": "U", "NORAD_CAT_ID": 66501, "ELEMENT_SET_NO": 999, "REV_AT_EPOCH": 399, "BSTAR": -0.012235, "MEAN_MOTION_DOT": -0.01690886, "MEAN_MOTION_DDOT": 0}, "tle": {"line1": "1 66501U 25263S   25336.50006943 -.01690886  00000+0 -12235-1 0  9995", "line2": "2 66501  42.9985 185.6193 0001390 263.6298 159.9376 15.75427733  3994"}}, "geometry": {"type": "Point", "coordinates": [-176.1014911801138, -0.2327960990127788]}}, {"type": "Feature", "properties": {"norad_id": 66502, "name": "STARLINK-35922", "group": "last-30-days", "lat": 3.679860375917193, "lon": -171.90827968231656, "alt_km": 345.2737550156835, "timestamp": "2025-12-02T17:49:10.799940+00:00", "meta": {"OBJECT_NAME": "STARLINK-35922", "OBJECT_ID": "2025-263T", "EPOCH": "2025-12-02T12:00:05.998752", "MEAN_MOTION": 15.75402718, "ECCENTRICITY": 0.0001756, "INCLINATION": 42.9985, "RA_OF_ASC_NODE": 185.6048, "ARG_OF_PERICENTER": 278.1612, "MEAN_ANOMALY": 151.1555, "EPHEMERIS_TYPE": 0, "CLASSIFICATION_TYPE": "U", "NORAD_CAT_ID": 66502, "ELEMENT_SET_NO": 999, "REV_AT_EPOCH": 399, "BSTAR": -0.011906, "MEAN_MOTION_DOT": -0.01649105, "MEAN_MOTION_DDOT": 0}, "tle": {"line1": "1 66502U 25263T   25336.50006943 -.01649105  00000+0 -11906-1 0  9998", "line2": "2 66502  42.9985 185.6048 0001756 278.1612 151.1555 15.75402718  3990"}}, "geometry": {"type": "Point", "coordinates": [-171.90827968231656, 3.679860375917193]}}, {"type": "Feature", "properties": {"norad_id": 66503, "name": "STARLINK-35917", "group": "last-30-days", "lat": 6.309200636494404, "lon": -169.06168146144205, "alt_km": 344.2716799949985, "timestamp": "2025-12-02T17:49:10.799973+00:00", "meta": {"OBJECT_NAME": "STARLINK-35917", "OBJECT_ID": "2025-263U", "EPOCH": "2025-12-02T06:00:02.999808", "MEAN_MOTION": 15.75145427, "ECCENTRICITY": 0.00013803, "INCLINATION": 42.9986, "RA_OF_ASC_NODE": 187.112, "ARG_OF_PERICENTER": 255.9733, "MEAN_ANOMALY": 197.7444, "EPHEMERIS_TYPE": 0, "CLASSIFICATION_TYPE": "U", "NORAD_CAT_ID": 66503, "ELEMENT_SET_NO": 999, "REV_AT_EPOCH": 395, "BSTAR": -0.0018373401, "MEAN_MOTION_DOT": -0.00274986, "MEAN_MOTION_DDOT": 0}, "tle": {"line1": "1 66503U 25263U   25336.25003472 -.00274986  00000+0 -18373-2 0  9991", "line2": "2 66503  42.9986 187.1120 0001380 255.9733 197.7444 15.75145427  3950"}}, "geometry": {"type": "Point", "coordinates": [-169.06168146144205, 6.309200636494404]}}, {"type": "Feature", "properties": {"norad_id": 66504, "name": "STARLINK-35916", "group": "last-30-days", "lat": -19.71065789669734, "lon": 27.13249952091639, "alt_km": 398.6905713460119, "timestamp": "2025-12-02T17:49:10.799984+00:00", "meta": {"OBJECT_NAME": "STARLINK-35916", "OBJECT_ID": "2025-263V", "EPOCH": "2025-12-02T12:00:05.998752", "MEAN_MOTION": 15.57912988, "ECCENTRICITY": 0.0001696, "INCLINATION": 42.9989, "RA_OF_ASC_NODE": 185.9536, "ARG_OF_PERICENTER": 251.7495, "MEAN_ANOMALY": 37.1963, "EPHEMERIS_TYPE": 0, "CLASSIFICATION_TYPE": "U", "NORAD_CAT_ID": 66504, "ELEMENT_SET_NO": 999, "REV_AT_EPOCH": 399, "BSTAR": -0.03682, "MEAN_MOTION_DOT": -0.02461792, "MEAN_MOTION_DDOT": 0}, "tle": {"line1": "1 66504U 25263V   25336.50006943 -.02461792  00000+0 -36820-1 0  9997", "line2": "2 66504  42.9989 185.9536 0001696 251.7495  37.1963 15.57912988  3991"}}, "geometry": {"type": "Point", "coordinates": [27.13249952091639, -19.71065789669734]}}, {"type": "Feature", "properties": {"norad_id": 66505, "name": "STARLINK-34766", "group": "last-30-days", "lat": 1.071966560812103, "lon": -174.7063962898814, "alt_km": 345.999866422123, "timestamp": "2025-12-02T17:49:10.799997+00:00", "meta": {"OBJECT_NAME": "STARLINK-34766", "OBJECT_ID": "2025-263W", "EPOCH": "2025-12-02T12:00:05.998752", "MEAN_MOTION": 15.75424339, "ECCENTRICITY": 0.0001595, "INCLINATION": 42.9986, "RA_OF_ASC_NODE": 185.6139, "ARG_OF_PERICENTER": 258.2195, "MEAN_ANOMALY": 167.2599, "EPHEMERIS_TYPE": 0, "CLASSIFICATION_TYPE": "U", "NORAD_CAT_ID": 66505, "ELEMENT_SET_NO": 999, "REV_AT_EPOCH": 399, "BSTAR": -0.012148, "MEAN_MOTION_DOT": -0.01680173, "MEAN_MOTION_DDOT": 0}, "tle": {"line1": "1 66505U 25263W   25336.50006943 -.01680173  00000+0 -12148-1 0  9990", "line2": "2 66505  42.9986 185.6139 0001595 258.2195 167.2599 15.75424339  3990"}}, "geometry": {"type": "Point", "coordinates": [-174.7063962898814, 1.071966560812103]}}]}